{
    "links": {
        "self": "http://www.neowsapp.com/rest/v1/neo/3755315?api_key=iIulBulltgU6a56xZRHN4H3l9WmuAYTsLGpBGhQ2"
    },
    "id": "3755315",
    "neo_reference_id": "3755315",
    "name": "(2016 NT32)",
    "designation": "2016 NT32",
    "nasa_jpl_url": "http://ssd.jpl.nasa.gov/sbdb.cgi?sstr=3755315",
    "absolute_magnitude_h": 23.2,
    "estimated_diameter": {
        "kilometers": {
            "estimated_diameter_min": 0.0608912622,
            "estimated_diameter_max": 0.1361570015
        },
        "meters": {
            "estimated_diameter_min": 60.8912622106,
            "estimated_diameter_max": 136.1570015386
        },
        "miles": {
            "estimated_diameter_min": 0.0378360645,
            "estimated_diameter_max": 0.0846040122
        },
        "feet": {
            "estimated_diameter_min": 199.7744887109,
            "estimated_diameter_max": 446.7093369279
        }
    },
    "is_potentially_hazardous_asteroid": false,
    "close_approach_data": [
        {
            "close_approach_date": "1985-07-03",
            "close_approach_date_full": "1985-Jul-03 05:39",
            "epoch_date_close_approach": 489217140000,
            "relative_velocity": {
                "kilometers_per_second": "15.0428143805",
                "kilometers_per_hour": "54154.1317696549",
                "miles_per_hour": "33649.2714876503"
            },
            "miss_distance": {
                "astronomical": "0.3835777776",
                "lunar": "149.2117554864",
                "kilometers": "57382418.508293712",
                "miles": "35655781.4804967456"
            },
            "orbiting_body": "Earth"
        },
        {
            "close_approach_date": "1988-09-04",
            "close_approach_date_full": "1988-Sep-04 14:49",
            "epoch_date_close_approach": 589387740000,
            "relative_velocity": {
                "kilometers_per_second": "12.0341752417",
                "kilometers_per_hour": "43323.0308701574",
                "miles_per_hour": "26919.246598182"
            },
            "miss_distance": {
                "astronomical": "0.2982472876",
                "lunar": "116.0181948764",
                "kilometers": "44617158.958237412",
                "miles": "27723817.0061718056"
            },
            "orbiting_body": "Earth"
        },
        {
            "close_approach_date": "2016-07-20",
            "close_approach_date_full": "2016-Jul-20 06:41",
            "epoch_date_close_approach": 1468996860000,
            "relative_velocity": {
                "kilometers_per_second": "8.827647482",
                "kilometers_per_hour": "31779.530935253",
                "miles_per_hour": "19746.5646525187"
            },
            "miss_distance": {
                "astronomical": "0.1628430323",
                "lunar": "63.3459395647",
                "kilometers": "24360970.776421201",
                "miles": "15137205.3189305338"
            },
            "orbiting_body": "Earth"
        },
        {
            "close_approach_date": "2019-09-19",
            "close_approach_date_full": "2019-Sep-19 23:32",
            "epoch_date_close_approach": 1568935920000,
            "relative_velocity": {
                "kilometers_per_second": "17.8215508594",
                "kilometers_per_hour": "64157.5830938674",
                "miles_per_hour": "39865.0271174089"
            },
            "miss_distance": {
                "astronomical": "0.4819114204",
                "lunar": "187.4635425356",
                "kilometers": "72092922.020514548",
                "miles": "44796464.5038868424"
            },
            "orbiting_body": "Earth"
        },
        {
            "close_approach_date": "2199-08-08",
            "close_approach_date_full": "2199-Aug-08 11:26",
            "epoch_date_close_approach": 7245545160000,
            "relative_velocity": {
                "kilometers_per_second": "6.4179081286",
                "kilometers_per_hour": "23104.469263107",
                "miles_per_hour": "14356.2186929567"
            },
            "miss_distance": {
                "astronomical": "0.0877286079",
                "lunar": "34.1264284731",
                "kilometers": "13124012.879905173",
                "miles": "8154883.4566024674"
            },
            "orbiting_body": "Earth"
        }
    ],
    "orbital_data": {
        "orbit_id": "15",
        "orbit_determination_date": "2017-04-06 08:25:01",
        "first_observation_date": "2016-07-11",
        "last_observation_date": "2016-10-04",
        "data_arc_in_days": 85,
        "observations_used": 48,
        "orbit_uncertainty": "6",
        "minimum_orbit_intersection": ".0855426",
        "jupiter_tisserand_invariant": "3.559",
        "epoch_osculation": "2459000.5",
        "eccentricity": ".4836096804267395",
        "semi_major_axis": "2.126242083067236",
        "inclination": "6.621195192762519",
        "ascending_node_longitude": "309.5789815605818",
        "orbital_period": "1132.445971556607",
        "perihelion_distance": "1.097970828765205",
        "perihelion_argument": "8.344391132001162",
        "aphelion_distance": "3.154513337369267",
        "perihelion_time": "2458733.983173877492",
        "mean_anomaly": "84.72462246673004",
        "mean_motion": ".317895960639218",
        "equinox": "J2000",
        "orbit_class": {
            "orbit_class_type": "AMO",
            "orbit_class_description": "Near-Earth asteroid orbits similar to that of 1221 Amor",
            "orbit_class_range": "1.017 AU < q (perihelion) < 1.3 AU"
        }
    },
    "is_sentry_object": false
}